EPOCH,INCLINATION,ECCENTRICITY,BSTAR,TLE_LINE1,TLE_LINE2
2026-03-19T16:33:58.061376,97.6026,0.00009239,0.00020226079000,1 64157U 25112M   26078.69025534  .00002859  00000-0  20226-3 0  9990,2 64157  97.6026 131.3908 0000924  97.5519 262.5812 15.05653814 44812
2026-03-19T03:48:21.970368,97.6026,0.00009245,0.00016491624000,1 64157U 25112M   26078.15858762  .00002320  00000-0  16492-3 0  9991,2 64157  97.6026 130.8668 0000925  98.0237 262.1095 15.05654688 44733
2026-03-18T21:25:33.979296,97.6027,0.00008905,0.00021210344000,1 64157U 25112M   26077.89275439  .00003001  00000-0  21210-3 0  9996,2 64157  97.6027 130.6047 0000890  98.0156 262.1172 15.05656285 44690
2026-03-18T10:15:39.931200,97.6026,0.00009236,0.00025862149000,1 64157U 25112M   26077.42754550  .00003674  00000-0  25862-3 0  9994,2 64157  97.6026 130.1465 0000924  92.6066 267.5266 15.05657971 44625
2026-03-18T10:15:39.930336,97.6026,0.00009240,0.00025862000000,1 64157U 25112M   26077.42754549  .00003674  00000-0  25862-3 0  9992,2 64157  97.6026 130.1465 0000924  92.6066 267.5266 15.05657971 44625
2026-03-18T03:52:51.989376,97.6027,0.00009236,0.00028644934000,1 64157U 25112M   26077.16171284  .00004076  00000-0  28645-3 0  9991,2 64157  97.6027 129.8841 0000924  99.5742 260.5590 15.05658830 44589
2026-03-17T23:05:46.044672,97.6028,0.00009148,0.00024504561000,1 64157U 25112M   26076.96233848  .00003477  00000-0  24505-3 0  9998,2 64157  97.6028 129.6876 0000915 100.7561 259.3769 15.05656420 44554
2026-03-17T13:31:34.123296,97.6028,0.00008734,0.00029648678000,1 64157U 25112M   26076.56358939  .00004221  00000-0  29649-3 0  9995,2 64157  97.6028 129.2945 0000873 100.0211 260.1114 15.05656384 44491
2026-03-17T03:57:22.324608,97.6024,0.00011026,0.00040231917000,1 64157U 25112M   26076.16484172  .00005750  00000-0  40232-3 0  9999,2 64157  97.6024 128.9019 0001103  99.3660 260.7692 15.05654772 44430
2026-03-17T02:21:40.169376,97.6024,0.00009580,0.00023199000000,1 64157U 25112M   26076.09838159  .00003289  00000-0  23199-3 0  9997,2 64157  97.6024 128.8362 0000958  99.4626 260.6709 15.05655119 44423
2026-03-16T13:36:04.309920,97.6023,0.00009710,0.00024480000000,1 64157U 25112M   26075.56671655  .00003473  00000-0  24480-3 0  9993,2 64157  97.6023 128.3122 0000971  98.7621 261.3716 15.05652460 44346
2026-03-16T02:26:10.331808,97.6027,0.00011352,0.00029739058000,1 64157U 25112M   26075.10150847  .00004233  00000-0  29739-3 0  9995,2 64157  97.6027 127.8542 0001135  95.0011 265.1345 15.05654710 44278
2026-03-15T21:39:04.294656,97.6021,0.00010148,0.00007800010300,1 64157U 25112M   26074.90213304  .00001065  00000-0  78000-4 0  9996,2 64157  97.6021 127.6580 0001015 103.3941 256.7399 15.05649324 44241
2026-03-15T13:40:34.121568,97.6024,0.00006686,0.00035484461000,1 64157U 25112M   26074.56983937  .00005064  00000-0  35484-3 0  9995,2 64157  97.6024 127.3294 0000669  89.9474 270.1829 15.05656573 44193
2026-03-15T02:30:40.221216,97.6021,0.00010922,0.00051556981000,1 64157U 25112M   26074.10463219  .00007388  00000-0  51557-3 0  9991,2 64157  97.6021 126.8714 0001092  94.7818 265.3534 15.05657997 44121
2026-03-14T16:56:28.400064,97.6023,0.00012116,0.00051230470000,1 64157U 25112M   26073.70588426  .00007339  00000-0  51230-3 0  9998,2 64157  97.6023 126.4783 0001212  92.6598 267.4767 15.05652822 44067
2026-03-14T13:45:04.401504,97.6024,0.00012121,0.00050757593000,1 64157U 25112M   26073.57296761  .00007271  00000-0  50758-3 0  9990,2 64157  97.6024 126.3474 0001212  92.2500 267.8866 15.05651564 44047
2026-03-14T02:35:10.352544,97.6022,0.00012674,0.00047716690000,1 64157U 25112M   26073.10775871  .00006830  00000-0  47717-3 0  9994,2 64157  97.6022 125.8888 0001267  92.7615 267.3756 15.05646626 43977
2026-03-13T02:39:39.819456,97.6024,0.00013995,0.00043862799000,1 64157U 25112M   26072.11087754  .00006272  00000-0  43863-3 0  9998,2 64157  97.6024 124.9065 0001400  89.2263 270.9124 15.05638250 43822
2026-03-12T17:05:27.266496,97.6029,0.00013850,-0.00059224000000,1 64157U 25112M   26071.71212114 -.00008594  00000-0 -59224-3 0  9992,2 64157  97.6029 124.5135 0001385 109.4959 250.6417 15.05641113 43765
2026-03-12T17:05:27.266496,97.6029,0.00013851,-0.00059223600000,1 64157U 25112M   26071.71212114 -.00008594  00000-0 -59224-3 0  9992,2 64157  97.6029 124.5135 0001385 109.4959 250.6417 15.05641113 43765
2026-03-12T13:54:03.011328,97.6021,0.00009860,-0.00065382000000,1 64157U 25112M   26071.57920152 -.00009484  00000-0 -65382-3 0  9995,2 64157  97.6021 124.3823 0000986  94.1265 266.0075 15.05655958 43746
2026-03-12T13:54:03.011328,97.6021,0.00009863,-0.00065381509000,1 64157U 25112M   26071.57920152 -.00009484  00000-0 -65382-3 0  9995,2 64157  97.6021 124.3823 0000986  94.1265 266.0075 15.05655958 43746
2026-03-12T02:44:08.955456,97.6008,0.00010730,-0.00003395400000,1 64157U 25112M   26071.11399254 -.00000551  00000-0 -33954-4 0  9995,2 64157  97.6008 123.9254 0001073  94.7415 265.3934 15.05688998 43673
2026-03-12T02:44:08.955456,97.6008,0.00010733,-0.00003395425500,1 64157U 25112M   26071.11399254 -.00000551  00000-0 -33954-4 0  9995,2 64157  97.6008 123.9254 0001073  94.7415 265.3934 15.05688998 43673
2026-03-11T13:58:33.902976,97.6022,0.00011383,0.00183395590000,1 64157U 25112M   26070.58233684  .00026544  00000-0  18340-2 0  9997,2 64157  97.6022 123.3995 0001138  99.2186 260.9170 15.05711255 43599
2026-03-11T13:58:33.902112,97.6022,0.00011380,0.00183400000000,1 64157U 25112M   26070.58233683  .00026544  00000-0  18340-2 0  9996,2 64157  97.6022 123.3995 0001138  99.2186 260.9170 15.05711255 43599
2026-03-11T09:11:28.650336,97.6027,0.00020200,0.00178450000000,1 64157U 25112M   26070.38297049  .00025815  00000-0  17845-2 0  9999,2 64157  97.6027 123.2022 0002020 101.1755 258.9698 15.05698789 43565
2026-03-11T01:12:59.986656,97.6016,0.00014447,0.00063361049000,1 64157U 25112M   26070.05069429  .00009093  00000-0  63361-3 0  9997,2 64157  97.6016 122.8767 0001445 104.3235 255.8153 15.05650334 43513
2026-03-11T01:12:59.985792,97.6016,0.00014450,0.00063361000000,1 64157U 25112M   26070.05069428  .00009093  00000-0  63361-3 0  9996,2 64157  97.6016 122.8767 0001445 104.3235 255.8153 15.05650334 43513
2026-03-10T17:14:29.990688,97.6015,0.00014660,0.00062841000000,1 64157U 25112M   26069.71840267  .00009017  00000-0  62841-3 0  9993,2 64157  97.6015 122.5497 0001466 104.1108 256.0282 15.05644025 43469
2026-03-10T17:14:29.990688,97.6015,0.00014662,0.00062840858000,1 64157U 25112M   26069.71840267  .00009017  00000-0  62841-3 0  9993,2 64157  97.6015 122.5497 0001466 104.1108 256.0282 15.05644025 43469
2026-03-10T02:53:11.632992,97.6020,0.00014439,0.00039162590000,1 64157U 25112M   26069.12027353  .00005592  00000-0  39163-3 0  9996,2 64157  97.6020 121.9588 0001444  99.6371 260.5019 15.05634165 43377
2026-03-10T02:53:11.632128,97.6020,0.00014440,0.00039163000000,1 64157U 25112M   26069.12027352  .00005592  00000-0  39163-3 0  9995,2 64157  97.6020 121.9588 0001444  99.6371 260.5019 15.05634165 43377
2026-03-09T17:18:59.334912,97.6018,0.00017330,0.00015851000000,1 64157U 25112M   26068.72152008  .00002225  00000-0  15851-3 0  9995,2 64157  97.6018 121.5647 0001733  97.9633 262.1791 15.05623506 43315
2026-03-09T17:18:59.334912,97.6018,0.00017329,0.00015850684000,1 64157U 25112M   26068.72152008  .00002225  00000-0  15851-3 0  9995,2 64157  97.6018 121.5647 0001733  97.9633 262.1791 15.05623506 43315
2026-03-09T01:21:58.133376,97.6020,0.00019571,0.00048916357000,1 64157U 25112M   26068.05692284  .00007002  00000-0  48916-3 0  9992,2 64157  97.6020 120.9083 0001957  99.9636 260.1811 15.05634279 43217
2026-03-08T17:23:27.523968,97.6020,0.00014973,0.00013912001000,1 64157U 25112M   26067.72462412  .00001946  00000-0  13912-3 0  9992,2 64157  97.6020 120.5815 0001497 103.9742 256.1652 15.05634743 43167
2026-03-08T14:12:03.381984,97.6032,0.00013957,0.00079262821000,1 64157U 25112M   26067.59170581  .00011390  00000-0  79263-3 0  9995,2 64157  97.6032 120.4519 0001396 110.7498 249.3878 15.05635764 43148
2026-03-08T03:02:08.716992,97.6017,0.00018610,0.00008051100000,1 64157U 25112M   26067.12648978  .00001101  00000-0  80511-4 0  9992,2 64157  97.6017 119.9931 0001861  93.2460 266.8980 15.05644429 43071
2026-03-07T17:27:56.304000,97.6040,0.00016570,-0.00068776000000,1 64157U 25112M   26066.72773500 -.00009970  00000-0 -68776-3 0  9999,2 64157  97.6040 119.5970 0001657 102.5621 257.5791 15.05646197 43017
2026-03-07T17:27:56.304000,97.6040,0.00016568,-0.00068775676000,1 64157U 25112M   26066.72773500 -.00009970  00000-0 -68776-3 0  9999,2 64157  97.6040 119.5970 0001657 102.5621 257.5791 15.05646197 43017
2026-03-07T14:16:31.746432,97.6034,0.00010339,-0.00007131921700,1 64157U 25112M   26066.59481188 -.00001090  00000-0 -71319-4 0  9995,2 64157  97.6034 119.4699 0001034 107.7964 252.3376 15.05674884 42995
2026-03-07T03:06:38.085408,97.6023,0.00013490,0.00058974000000,1 64157U 25112M   26066.12960747  .00008467  00000-0  58974-3 0  9991,2 64157  97.6023 119.0087 0001349 119.1621 240.9741 15.05686236 42922
2026-03-07T03:06:38.085408,97.6023,0.00013489,0.00058974000000,1 64157U 25112M   26066.12960747  .00008467  00000-0  58974-3 0  9991,2 64157  97.6023 119.0087 0001349 119.1621 240.9741 15.05686236 42922
2026-03-06T14:21:03.071808,97.6035,0.00017083,0.00104990420000,1 64157U 25112M   26065.59795222  .00015137  00000-0  10499-2 0  9996,2 64157  97.6035 118.4838 0001708 115.5119 244.6285 15.05690681 42847
2026-03-06T01:35:28.106592,97.6029,0.00016028,0.00013206761000,1 64157U 25112M   26065.06629753  .00001846  00000-0  13207-3 0  9996,2 64157  97.6029 117.9613 0001603 118.3243 241.8146 15.05664487 42769
2026-03-05T17:36:58.223808,97.6021,0.00012546,0.00023132091000,1 64157U 25112M   26064.73400722  .00003280  00000-0  23132-3 0  9994,2 64157  97.6021 117.6345 0001255 117.3772 242.7583 15.05668132 42710
